start=new Date('2021-12-01T00:00:00.000Z').valueOf();
sats=[{"NORAD_CAT_ID":"48303","TLE_LINE1":"1 48303U 21036AD  21334.50536283  .00000671  00000-0  63980-4 0  9999","EPHEMERIS_TYPE":"0","ARG_OF_PERICENTER":"66.1126","REV_AT_EPOCH":"3301","PERIAPSIS":"545.667","MEAN_ELEMENT_THEORY":"SGP4","INCLINATION":"53.0535","SITE":"AFETR","GP_ID":"190816601","BSTAR":"0.00006398000000","EPOCH":"2021-11-30T12:07:43.348512","OBJECT_NAME":"STARLINK-2530","PERIOD":"95.593","MEAN_ANOMALY":"294.0101","OBJECT_ID":"2021-036AD","CLASSIFICATION_TYPE":"U","MEAN_MOTION_DDOT":"0.0000000000000","TLE_LINE2":"2 48303  53.0535 255.5449 0002271  66.1126 294.0101 15.06391397 33017","APOAPSIS":"548.813","LAUNCH_DATE":"2021-04-29","SEMIMAJOR_AXIS":"6925.375","RA_OF_ASC_NODE":"255.5449","MEAN_MOTION_DOT":"0.00000671","ELEMENT_SET_NO":"999","MEAN_MOTION":"15.06391397","REF_FRAME":"TEME","RCS_SIZE":"LARGE","OBJECT_TYPE":"PAYLOAD","DECAY_DATE":null,"COUNTRY_CODE":"US","CENTER_NAME":"EARTH","TIME_SYSTEM":"UTC","FILE":"3228256","ECCENTRICITY":"0.00022710"},{"TIME_SYSTEM":"UTC","FILE":"3228256","RCS_SIZE":"LARGE","OBJECT_TYPE":"PAYLOAD","REF_FRAME":"TEME","CENTER_NAME":"EARTH","DECAY_DATE":null,"COUNTRY_CODE":"US","ECCENTRICITY":"0.00023460","ELEMENT_SET_NO":"999","MEAN_MOTION_DOT":"0.00000208","MEAN_MOTION":"15.06401950","OBJECT_ID":"2021-036AE","CLASSIFICATION_TYPE":"U","MEAN_MOTION_DDOT":"0.0000000000000","TLE_LINE2":"2 48304  53.0552 254.3820 0002346  56.9668 303.1546 15.06401950 33054","LAUNCH_DATE":"2021-04-29","APOAPSIS":"548.832","SEMIMAJOR_AXIS":"6925.343","RA_OF_ASC_NODE":"254.3820","REV_AT_EPOCH":"3305","PERIAPSIS":"545.583","MEAN_ELEMENT_THEORY":"SGP4","NORAD_CAT_ID":"48304","TLE_LINE1":"1 48304U 21036AE  21334.76705241  .00000208  00000-0  32890-4 0  9992","EPHEMERIS_TYPE":"0","ARG_OF_PERICENTER":"56.9668","EPOCH":"2021-11-30T18:24:33.328224","OBJECT_NAME":"STARLINK-2524","PERIOD":"95.592","MEAN_ANOMALY":"303.1546","INCLINATION":"53.0552","SITE":"AFETR","GP_ID":"190816851","BSTAR":"0.00003289000000"},{"MEAN_MOTION":"15.06389626","MEAN_MOTION_DOT":"-0.00000134","ELEMENT_SET_NO":"999","ECCENTRICITY":"0.00018130","RCS_SIZE":"LARGE","REF_FRAME":"TEME","OBJECT_TYPE":"PAYLOAD","DECAY_DATE":null,"COUNTRY_CODE":"US","CENTER_NAME":"EARTH","TIME_SYSTEM":"UTC","FILE":"3228256","INCLINATION":"53.0551","GP_ID":"190817103","BSTAR":"0.00000992110000","SITE":"AFETR","EPOCH":"2021-11-30T18:19:15.627648","OBJECT_NAME":"STARLINK-2519","PERIOD":"95.593","MEAN_ANOMALY":"294.4115","NORAD_CAT_ID":"48305","TLE_LINE1":"1 48305U 21036AF  21334.76337532 -.00000134  00000-0  99211-5 0  9997","ARG_OF_PERICENTER":"65.7064","EPHEMERIS_TYPE":"0","REV_AT_EPOCH":"3305","PERIAPSIS":"545.990","MEAN_ELEMENT_THEORY":"SGP4","TLE_LINE2":"2 48305  53.0551 254.3905 0001813  65.7064 294.4115 15.06389626 33053","MEAN_MOTION_DDOT":"0.0000000000000","APOAPSIS":"548.501","LAUNCH_DATE":"2021-04-29","RA_OF_ASC_NODE":"254.3905","SEMIMAJOR_AXIS":"6925.380","OBJECT_ID":"2021-036AF","CLASSIFICATION_TYPE":"U"},{"ARG_OF_PERICENTER":"67.3544","EPHEMERIS_TYPE":"0","NORAD_CAT_ID":"48306","TLE_LINE1":"1 48306U 21036AG  21334.49429489  .00000768  00000-0  70466-4 0  9993","PERIAPSIS":"545.773","MEAN_ELEMENT_THEORY":"SGP4","REV_AT_EPOCH":"3301","BSTAR":"0.00007046600000","GP_ID":"190817354","SITE":"AFETR","INCLINATION":"53.0560","PERIOD":"95.592","MEAN_ANOMALY":"292.7664","EPOCH":"2021-11-30T11:51:47.078496","OBJECT_NAME":"STARLINK-2523","CLASSIFICATION_TYPE":"U","OBJECT_ID":"2021-036AG","APOAPSIS":"548.646","LAUNCH_DATE":"2021-04-29","SEMIMAJOR_AXIS":"6925.345","RA_OF_ASC_NODE":"255.6121","MEAN_MOTION_DDOT":"0.0000000000000","TLE_LINE2":"2 48306  53.0560 255.6121 0002074  67.3544 292.7664 15.06401228 33018","MEAN_MOTION_DOT":"0.00000768","ELEMENT_SET_NO":"999","MEAN_MOTION":"15.06401228","RCS_SIZE":"LARGE","OBJECT_TYPE":"PAYLOAD","REF_FRAME":"TEME","COUNTRY_CODE":"US","DECAY_DATE":null,"CENTER_NAME":"EARTH","TIME_SYSTEM":"UTC","FILE":"3228256","ECCENTRICITY":"0.00020740"},{"MEAN_MOTION":"15.06403816","MEAN_MOTION_DOT":"0.00000856","ELEMENT_SET_NO":"999","ECCENTRICITY":"0.00019650","CENTER_NAME":"EARTH","DECAY_DATE":null,"COUNTRY_CODE":"US","RCS_SIZE":"LARGE","REF_FRAME":"TEME","OBJECT_TYPE":"PAYLOAD","FILE":"3228256","TIME_SYSTEM":"UTC","INCLINATION":"53.0558","GP_ID":"190816102","BSTAR":"0.00007636200000","SITE":"AFETR","OBJECT_NAME":"STARLINK-2528","EPOCH":"2021-11-30T11:46:28.512192","MEAN_ANOMALY":"292.7858","PERIOD":"95.592","TLE_LINE1":"1 48307U 21036AH  21334.49060778  .00000856  00000-0  76362-4 0  9995","NORAD_CAT_ID":"48307","ARG_OF_PERICENTER":"67.3338","EPHEMERIS_TYPE":"0","REV_AT_EPOCH":"3301","MEAN_ELEMENT_THEORY":"SGP4","PERIAPSIS":"545.841","MEAN_MOTION_DDOT":"0.0000000000000","TLE_LINE2":"2 48307  53.0558 255.6173 0001965  67.3338 292.7858 15.06403816 33012","SEMIMAJOR_AXIS":"6925.337","RA_OF_ASC_NODE":"255.6173","LAUNCH_DATE":"2021-04-29","APOAPSIS":"548.563","OBJECT_ID":"2021-036AH","CLASSIFICATION_TYPE":"U"},{"DECAY_DATE":null,"COUNTRY_CODE":"US","CENTER_NAME":"EARTH","RCS_SIZE":"LARGE","OBJECT_TYPE":"PAYLOAD","REF_FRAME":"TEME","FILE":"3228256","TIME_SYSTEM":"UTC","ECCENTRICITY":"0.00020460","MEAN_MOTION_DOT":"0.00000832","ELEMENT_SET_NO":"999","MEAN_MOTION":"15.06403209","OBJECT_ID":"2021-036AJ","CLASSIFICATION_TYPE":"U","TLE_LINE2":"2 48308  53.0545 255.6413 0002046  63.6764 296.4435 15.06403209 33017","MEAN_MOTION_DDOT":"0.0000000000000","SEMIMAJOR_AXIS":"6925.339","RA_OF_ASC_NODE":"255.6413","LAUNCH_DATE":"2021-04-29","APOAPSIS":"548.621","TLE_LINE1":"1 48308U 21036AJ  21334.48692080  .00000832  00000-0  74752-4 0  9997","NORAD_CAT_ID":"48308","ARG_OF_PERICENTER":"63.6764","EPHEMERIS_TYPE":"0","REV_AT_EPOCH":"3301","MEAN_ELEMENT_THEORY":"SGP4","PERIAPSIS":"545.787","INCLINATION":"53.0545","GP_ID":"190816352","BSTAR":"0.00007475200000","SITE":"AFETR","OBJECT_NAME":"STARLINK-2532","EPOCH":"2021-11-30T11:41:09.957120","MEAN_ANOMALY":"296.4435","PERIOD":"95.592"},{"PERIOD":"95.592","MEAN_ANOMALY":"295.6715","EPOCH":"2021-11-30T11:35:51.450432","OBJECT_NAME":"STARLINK-2517","GP_ID":"190817603","SITE":"AFETR","BSTAR":"0.00002007600000","INCLINATION":"53.0545","PERIAPSIS":"545.641","MEAN_ELEMENT_THEORY":"SGP4","REV_AT_EPOCH":"3301","ARG_OF_PERICENTER":"64.4506","EPHEMERIS_TYPE":"0","NORAD_CAT_ID":"48309","TLE_LINE1":"1 48309U 21036AK  21334.48323438  .00000017  00000-0  20076-4 0  9991","APOAPSIS":"548.758","LAUNCH_DATE":"2021-04-29","RA_OF_ASC_NODE":"255.6672","SEMIMAJOR_AXIS":"6925.334","MEAN_MOTION_DDOT":"0.0000000000000","TLE_LINE2":"2 48309  53.0545 255.6672 0002250  64.4506 295.6715 15.06404646 33013","CLASSIFICATION_TYPE":"U","OBJECT_ID":"2021-036AK","MEAN_MOTION":"15.06404646","ELEMENT_SET_NO":"999","MEAN_MOTION_DOT":"0.00000017","ECCENTRICITY":"0.00022500","TIME_SYSTEM":"UTC","FILE":"3228256","REF_FRAME":"TEME","RCS_SIZE":"MEDIUM","OBJECT_TYPE":"PAYLOAD","CENTER_NAME":"EARTH","DECAY_DATE":null,"COUNTRY_CODE":"US"},{"ECCENTRICITY":"0.00023340","TIME_SYSTEM":"UTC","FILE":"3228256","RCS_SIZE":"LARGE","REF_FRAME":"TEME","OBJECT_TYPE":"PAYLOAD","COUNTRY_CODE":"US","DECAY_DATE":null,"CENTER_NAME":"EARTH","MEAN_MOTION":"15.06391501","ELEMENT_SET_NO":"999","MEAN_MOTION_DOT":"-0.00001148","MEAN_MOTION_DDOT":"0.0000000000000","TLE_LINE2":"2 48310  53.0546 255.6641 0002334  61.0951 299.0272 15.06391501 33013","LAUNCH_DATE":"2021-04-29","APOAPSIS":"548.856","RA_OF_ASC_NODE":"255.6641","SEMIMAJOR_AXIS":"6925.375","OBJECT_ID":"2021-036AL","CLASSIFICATION_TYPE":"U","EPOCH":"2021-11-30T11:30:33.941664","OBJECT_NAME":"STARLINK-2536","PERIOD":"95.593","MEAN_ANOMALY":"299.0272","INCLINATION":"53.0546","SITE":"AFETR","GP_ID":"190817854","BSTAR":"-0.00005818500000","REV_AT_EPOCH":"3301","PERIAPSIS":"545.623","MEAN_ELEMENT_THEORY":"SGP4","NORAD_CAT_ID":"48310","TLE_LINE1":"1 48310U 21036AL  21334.47955951 -.00001148  00000-0 -58185-4 0  9993","ARG_OF_PERICENTER":"61.0951","EPHEMERIS_TYPE":"0"},{"PERIOD":"95.592","MEAN_ANOMALY":"300.2648","EPOCH":"2021-11-30T11:25:14.523456","OBJECT_NAME":"STARLINK-2534","SITE":"AFETR","GP_ID":"190816602","BSTAR":"0.00011068000000","INCLINATION":"53.0554","PERIAPSIS":"545.470","MEAN_ELEMENT_THEORY":"SGP4","REV_AT_EPOCH":"3301","EPHEMERIS_TYPE":"0","ARG_OF_PERICENTER":"59.8589","NORAD_CAT_ID":"48311","TLE_LINE1":"1 48311U 21036AM  21334.47586254  .00001367  00000-0  11068-3 0  9999","LAUNCH_DATE":"2021-04-29","APOAPSIS":"548.938","SEMIMAJOR_AXIS":"6925.339","RA_OF_ASC_NODE":"255.6948","TLE_LINE2":"2 48311  53.0554 255.6948 0002504  59.8589 300.2648 15.06403122 33019","MEAN_MOTION_DDOT":"0.0000000000000","CLASSIFICATION_TYPE":"U","OBJECT_ID":"2021-036AM","MEAN_MOTION":"15.06403122","ELEMENT_SET_NO":"999","MEAN_MOTION_DOT":"0.00001367","ECCENTRICITY":"0.00025040","TIME_SYSTEM":"UTC","FILE":"3228256","REF_FRAME":"TEME","RCS_SIZE":"LARGE","OBJECT_TYPE":"PAYLOAD","COUNTRY_CODE":"US","DECAY_DATE":null,"CENTER_NAME":"EARTH"},{"MEAN_MOTION_DOT":"0.00001087","ELEMENT_SET_NO":"999","MEAN_MOTION":"15.06403128","OBJECT_TYPE":"PAYLOAD","RCS_SIZE":"LARGE","REF_FRAME":"TEME","DECAY_DATE":null,"COUNTRY_CODE":"US","CENTER_NAME":"EARTH","TIME_SYSTEM":"UTC","FILE":"3228256","ECCENTRICITY":"0.00021710","NORAD_CAT_ID":"48312","TLE_LINE1":"1 48312U 21036AN  21334.87025950  .00001087  00000-0  91900-4 0  9998","EPHEMERIS_TYPE":"0","ARG_OF_PERICENTER":"63.1524","REV_AT_EPOCH":"3307","PERIAPSIS":"545.700","MEAN_ELEMENT_THEORY":"SGP4","INCLINATION":"53.0536","SITE":"AFETR","GP_ID":"190816852","BSTAR":"0.00009190000000","EPOCH":"2021-11-30T20:53:10.420800","OBJECT_NAME":"STARLINK-2061","PERIOD":"95.592","MEAN_ANOMALY":"296.9686","OBJECT_ID":"2021-036AN","CLASSIFICATION_TYPE":"U","MEAN_MOTION_DDOT":"0.0000000000000","TLE_LINE2":"2 48312  53.0536 253.9262 0002171  63.1524 296.9686 15.06403128 33072","APOAPSIS":"548.707","LAUNCH_DATE":"2021-04-29","SEMIMAJOR_AXIS":"6925.339","RA_OF_ASC_NODE":"253.9262"}];
